start=new Date('2022-04-09T00:00:00.000Z').valueOf();
sats=[{"OBJECT_ID":"2021-036J","PERIAPSIS":"546.015","MEAN_MOTION":"15.06421887","RA_OF_ASC_NODE":"26.5040","TIME_SYSTEM":"UTC","NORAD_CAT_ID":"48284","INCLINATION":"53.0557","MEAN_MOTION_DOT":"0.00008928","BSTAR":"0.00061716000000","MEAN_MOTION_DDOT":"0.0000000000000","APOAPSIS":"548.278","SITE":"AFETR","SEMIMAJOR_AXIS":"6925.281","OBJECT_TYPE":"PAYLOAD","RCS_SIZE":"LARGE","TLE_LINE1":"1 48284U 21036J   22098.49203647  .00008928  00000-0  61716-3 0  9995","MEAN_ANOMALY":"293.6664","DECAY_DATE":null,"GP_ID":"200746253","LAUNCH_DATE":"2021-04-29","TLE_LINE2":"2 48284  53.0557  26.5040 0001634  66.4497 293.6664 15.06421887 52599","REV_AT_EPOCH":"5259","CLASSIFICATION_TYPE":"U","ELEMENT_SET_NO":"999","EPHEMERIS_TYPE":"0","REF_FRAME":"TEME","OBJECT_NAME":"STARLINK-2564","ECCENTRICITY":"0.00016340","EPOCH":"2022-04-08T11:48:31.951008","COUNTRY_CODE":"US","FILE":"3393517","ARG_OF_PERICENTER":"66.4497","CENTER_NAME":"EARTH","PERIOD":"95.591","MEAN_ELEMENT_THEORY":"SGP4"},{"OBJECT_ID":"2021-036K","PERIAPSIS":"546.110","RA_OF_ASC_NODE":"25.3411","MEAN_MOTION":"15.06412475","TIME_SYSTEM":"UTC","NORAD_CAT_ID":"48285","MEAN_MOTION_DOT":"0.00003339","INCLINATION":"53.0569","BSTAR":"0.00024288000000","APOAPSIS":"548.240","MEAN_MOTION_DDOT":"0.0000000000000","SITE":"AFETR","OBJECT_TYPE":"PAYLOAD","SEMIMAJOR_AXIS":"6925.310","RCS_SIZE":"LARGE","TLE_LINE1":"1 48285U 21036K   22098.75373555  .00003339  00000-0  24288-3 0  9995","MEAN_ANOMALY":"283.7600","DECAY_DATE":null,"GP_ID":"200781241","LAUNCH_DATE":"2021-04-29","REV_AT_EPOCH":"5263","TLE_LINE2":"2 48285  53.0569  25.3411 0001538  76.3560 283.7600 15.06412475 52634","CLASSIFICATION_TYPE":"U","ELEMENT_SET_NO":"999","EPHEMERIS_TYPE":"0","REF_FRAME":"TEME","OBJECT_NAME":"STARLINK-2548","EPOCH":"2022-04-08T18:05:22.751520","ECCENTRICITY":"0.00015380","COUNTRY_CODE":"US","FILE":"3393990","CENTER_NAME":"EARTH","ARG_OF_PERICENTER":"76.3560","MEAN_ELEMENT_THEORY":"SGP4","PERIOD":"95.591"},{"EPHEMERIS_TYPE":"0","ELEMENT_SET_NO":"999","OBJECT_NAME":"STARLINK-2547","REF_FRAME":"TEME","COUNTRY_CODE":"US","FILE":"3393517","ECCENTRICITY":"0.00013850","EPOCH":"2022-04-08T05:15:45.639072","PERIOD":"95.591","MEAN_ELEMENT_THEORY":"SGP4","CENTER_NAME":"EARTH","ARG_OF_PERICENTER":"67.7558","TLE_LINE1":"1 48286U 21036L   22098.21927823  .00009559  00000-0  65941-3 0  9991","MEAN_ANOMALY":"292.3578","LAUNCH_DATE":"2021-04-29","GP_ID":"200746755","DECAY_DATE":null,"CLASSIFICATION_TYPE":"U","TLE_LINE2":"2 48286  53.0552  27.7535 0001385  67.7558 292.3578 15.06417313 52558","REV_AT_EPOCH":"5255","APOAPSIS":"548.120","MEAN_MOTION_DDOT":"0.0000000000000","BSTAR":"0.00065941000000","SITE":"AFETR","RCS_SIZE":"LARGE","SEMIMAJOR_AXIS":"6925.295","OBJECT_TYPE":"PAYLOAD","OBJECT_ID":"2021-036L","PERIAPSIS":"546.201","TIME_SYSTEM":"UTC","RA_OF_ASC_NODE":"27.7535","MEAN_MOTION":"15.06417313","INCLINATION":"53.0552","MEAN_MOTION_DOT":"0.00009559","NORAD_CAT_ID":"48286"},{"INCLINATION":"53.0563","MEAN_MOTION_DOT":"0.00002351","NORAD_CAT_ID":"48287","TIME_SYSTEM":"UTC","RA_OF_ASC_NODE":"24.7716","MEAN_MOTION":"15.06409316","PERIAPSIS":"546.119","OBJECT_ID":"2021-036M","RCS_SIZE":"LARGE","SEMIMAJOR_AXIS":"6925.320","OBJECT_TYPE":"PAYLOAD","SITE":"AFETR","APOAPSIS":"548.252","MEAN_MOTION_DDOT":"0.0000000000000","BSTAR":"0.00017662000000","CLASSIFICATION_TYPE":"U","TLE_LINE2":"2 48287  53.0563  24.7716 0001540  57.0100 303.1037 15.06409316 52653","REV_AT_EPOCH":"5265","LAUNCH_DATE":"2021-04-29","DECAY_DATE":null,"GP_ID":"200782243","MEAN_ANOMALY":"303.1037","TLE_LINE1":"1 48287U 21036M   22098.87905590  .00002351  00000-0  17662-3 0  9991","PERIOD":"95.592","MEAN_ELEMENT_THEORY":"SGP4","ARG_OF_PERICENTER":"57.0100","CENTER_NAME":"EARTH","FILE":"3393990","COUNTRY_CODE":"US","ECCENTRICITY":"0.00015400","EPOCH":"2022-04-08T21:05:50.429760","OBJECT_NAME":"STARLINK-2566","REF_FRAME":"TEME","EPHEMERIS_TYPE":"0","ELEMENT_SET_NO":"999"},{"LAUNCH_DATE":"2021-04-29","GP_ID":"200751559","DECAY_DATE":null,"CLASSIFICATION_TYPE":"U","TLE_LINE2":"2 48288  53.0557  27.7859 0001628  64.8797 295.2360 15.06414338 53137","REV_AT_EPOCH":"5313","TLE_LINE1":"1 48288U 21036N   22098.21190634  .00008617  00000-0  59646-3 0  9994","MEAN_ANOMALY":"295.2360","FILE":"3393613","COUNTRY_CODE":"US","ECCENTRICITY":"0.00016280","EPOCH":"2022-04-08T05:05:08.707776","PERIOD":"95.591","MEAN_ELEMENT_THEORY":"SGP4","CENTER_NAME":"EARTH","ARG_OF_PERICENTER":"64.8797","EPHEMERIS_TYPE":"0","ELEMENT_SET_NO":"999","OBJECT_NAME":"STARLINK-2562","REF_FRAME":"TEME","TIME_SYSTEM":"UTC","MEAN_MOTION":"15.06414338","RA_OF_ASC_NODE":"27.7859","INCLINATION":"53.0557","MEAN_MOTION_DOT":"0.00008617","NORAD_CAT_ID":"48288","OBJECT_ID":"2021-036N","PERIAPSIS":"546.042","RCS_SIZE":"LARGE","SEMIMAJOR_AXIS":"6925.305","OBJECT_TYPE":"PAYLOAD","APOAPSIS":"548.297","MEAN_MOTION_DDOT":"0.0000000000000","BSTAR":"0.00059646000000","SITE":"AFETR"},{"EPOCH":"2022-04-08T06:35:23.135712","ECCENTRICITY":"0.00016620","COUNTRY_CODE":"US","FILE":"3393517","CENTER_NAME":"EARTH","ARG_OF_PERICENTER":"67.2260","MEAN_ELEMENT_THEORY":"SGP4","PERIOD":"95.593","ELEMENT_SET_NO":"999","EPHEMERIS_TYPE":"0","REF_FRAME":"TEME","OBJECT_NAME":"STARLINK-2545","DECAY_DATE":null,"GP_ID":"200746004","LAUNCH_DATE":"2021-04-29","TLE_LINE2":"2 48289  53.0567  27.4812 0001662  67.2260 292.8904 15.06393066 52562","REV_AT_EPOCH":"5256","CLASSIFICATION_TYPE":"U","TLE_LINE1":"1 48289U 21036P   22098.27457333  .00001913  00000-0  14732-3 0  9992","MEAN_ANOMALY":"292.8904","OBJECT_TYPE":"PAYLOAD","SEMIMAJOR_AXIS":"6925.370","RCS_SIZE":"LARGE","BSTAR":"0.00014732000000","MEAN_MOTION_DDOT":"0.0000000000000","APOAPSIS":"548.386","SITE":"AFETR","MEAN_MOTION":"15.06393066","RA_OF_ASC_NODE":"27.4812","TIME_SYSTEM":"UTC","NORAD_CAT_ID":"48289","MEAN_MOTION_DOT":"0.00001913","INCLINATION":"53.0567","OBJECT_ID":"2021-036P","PERIAPSIS":"546.084"},{"INCLINATION":"53.0555","MEAN_MOTION_DOT":"0.00002105","NORAD_CAT_ID":"48290","TIME_SYSTEM":"UTC","RA_OF_ASC_NODE":"26.3307","MEAN_MOTION":"15.06396945","PERIAPSIS":"546.097","OBJECT_ID":"2021-036Q","RCS_SIZE":"LARGE","SEMIMAJOR_AXIS":"6925.358","OBJECT_TYPE":"PAYLOAD","SITE":"AFETR","APOAPSIS":"548.349","MEAN_MOTION_DDOT":"0.0000000000000","BSTAR":"0.00016020000000","CLASSIFICATION_TYPE":"U","REV_AT_EPOCH":"5260","TLE_LINE2":"2 48290  53.0555  26.3307 0001626  60.2574 299.8577 15.06396945 52606","LAUNCH_DATE":"2021-04-29","DECAY_DATE":null,"GP_ID":"200747255","MEAN_ANOMALY":"299.8577","TLE_LINE1":"1 48290U 21036Q   22098.53626227  .00002105  00000-0  16020-3 0  9999","PERIOD":"95.592","MEAN_ELEMENT_THEORY":"SGP4","CENTER_NAME":"EARTH","ARG_OF_PERICENTER":"60.2574","COUNTRY_CODE":"US","FILE":"3393517","ECCENTRICITY":"0.00016260","EPOCH":"2022-04-08T12:52:13.060128","OBJECT_NAME":"STARLINK-2540","REF_FRAME":"TEME","EPHEMERIS_TYPE":"0","ELEMENT_SET_NO":"999"},{"PERIAPSIS":"545.848","OBJECT_ID":"2021-036R","INCLINATION":"53.0562","MEAN_MOTION_DOT":"0.00007202","NORAD_CAT_ID":"48291","TIME_SYSTEM":"UTC","MEAN_MOTION":"15.06419632","RA_OF_ASC_NODE":"26.3426","SITE":"AFETR","MEAN_MOTION_DDOT":"0.0000000000000","APOAPSIS":"548.459","BSTAR":"0.00050161000000","RCS_SIZE":"LARGE","SEMIMAJOR_AXIS":"6925.288","OBJECT_TYPE":"PAYLOAD","MEAN_ANOMALY":"309.7979","TLE_LINE1":"1 48291U 21036R   22098.53258242  .00007202  00000-0  50161-3 0  9995","CLASSIFICATION_TYPE":"U","REV_AT_EPOCH":"5318","TLE_LINE2":"2 48291  53.0562  26.3426 0001885  50.3176 309.7979 15.06419632 53182","LAUNCH_DATE":"2021-04-29","GP_ID":"200723549","DECAY_DATE":null,"OBJECT_NAME":"STARLINK-2555","REF_FRAME":"TEME","EPHEMERIS_TYPE":"0","ELEMENT_SET_NO":"999","PERIOD":"95.591","MEAN_ELEMENT_THEORY":"SGP4","ARG_OF_PERICENTER":"50.3176","CENTER_NAME":"EARTH","COUNTRY_CODE":"US","FILE":"3393379","ECCENTRICITY":"0.00018850","EPOCH":"2022-04-08T12:46:55.121088"},{"RCS_SIZE":"LARGE","OBJECT_TYPE":"PAYLOAD","SEMIMAJOR_AXIS":"6925.283","APOAPSIS":"548.137","MEAN_MOTION_DDOT":"0.0000000000000","BSTAR":"0.00083598000000","SITE":"AFETR","TIME_SYSTEM":"UTC","MEAN_MOTION":"15.06421540","RA_OF_ASC_NODE":"26.3606","MEAN_MOTION_DOT":"0.00012199","INCLINATION":"53.0560","NORAD_CAT_ID":"48292","OBJECT_ID":"2021-036S","PERIAPSIS":"546.158","COUNTRY_CODE":"US","FILE":"3393517","EPOCH":"2022-04-08T12:40:14.951712","ECCENTRICITY":"0.00014290","MEAN_ELEMENT_THEORY":"SGP4","PERIOD":"95.591","ARG_OF_PERICENTER":"70.2615","CENTER_NAME":"EARTH","EPHEMERIS_TYPE":"0","ELEMENT_SET_NO":"999","OBJECT_NAME":"STARLINK-2542","REF_FRAME":"TEME","LAUNCH_DATE":"2021-04-29","GP_ID":"200746254","DECAY_DATE":null,"CLASSIFICATION_TYPE":"U","TLE_LINE2":"2 48292  53.0560  26.3606 0001429  70.2615 289.8528 15.06421540 52609","REV_AT_EPOCH":"5260","TLE_LINE1":"1 48292U 21036S   22098.52795083  .00012199  00000-0  83598-3 0  9995","MEAN_ANOMALY":"289.8528"},{"APOAPSIS":"548.373","MEAN_MOTION_DDOT":"0.0000000000000","BSTAR":"0.00058883000000","SITE":"AFETR","RCS_SIZE":"LARGE","SEMIMAJOR_AXIS":"6925.281","OBJECT_TYPE":"PAYLOAD","OBJECT_ID":"2021-036T","PERIAPSIS":"545.919","TIME_SYSTEM":"UTC","MEAN_MOTION":"15.06421937","RA_OF_ASC_NODE":"26.3686","INCLINATION":"53.0558","MEAN_MOTION_DOT":"0.00008505","NORAD_CAT_ID":"48293","EPHEMERIS_TYPE":"0","ELEMENT_SET_NO":"999","OBJECT_NAME":"STARLINK-2550","REF_FRAME":"TEME","COUNTRY_CODE":"US","FILE":"3393517","ECCENTRICITY":"0.00017720","EPOCH":"2022-04-08T12:36:18.180288","PERIOD":"95.591","MEAN_ELEMENT_THEORY":"SGP4","CENTER_NAME":"EARTH","ARG_OF_PERICENTER":"59.5377","TLE_LINE1":"1 48293U 21036T   22098.52521042  .00008505  00000-0  58883-3 0  9993","MEAN_ANOMALY":"300.5787","LAUNCH_DATE":"2021-04-29","DECAY_DATE":null,"GP_ID":"200746504","CLASSIFICATION_TYPE":"U","REV_AT_EPOCH":"5260","TLE_LINE2":"2 48293  53.0558  26.3686 0001772  59.5377 300.5787 15.06421937 52609"}];
